H-2A R/B                
1 38341U 12025E   25322.73485071  .00004623  00000+0  42928-3 0  9990
2 38341  98.4553 276.1234 0044547 317.0061  42.7679 14.94214243731642
SHIJIAN-16 (SJ-16)      
1 39358U 13057A   25322.79699260  .00002785  00000+0  27760-3 0  9992
2 39358  74.9750  34.9527 0016662  17.3220 342.8533 14.91884697654963
SL-4 R/B                
1 39679U 14021B   25322.54663948  .00015053  00000+0  36532-3 0  9996
2 39679  51.6058 158.0947 0103618  59.1979 301.9153 15.35830020639179
ALOS-2                  
1 39766U 14029A   25322.86864256  .00002622  00000+0  35791-3 0  9995
2 39766  97.9238  58.0539 0001426  99.9992 260.1381 14.79466414620488
YAOGAN-29               
1 41038U 15069A   25322.86486331  .00000748  00000+0  99089-4 0  9997
2 41038  98.0243 345.9573 0001801  37.1023 323.0314 14.82845596539450
ASTRO-H (HITOMI)        
1 41337U 16012A   25321.82288552  .00004529  00000+0  27250-3 0  9999
2 41337  31.0014 357.9743 0009859 286.5211  73.4344 15.09138755535319
HXMT (HUIYAN)           
1 42758U 17034A   25322.87533729  .00009186  00000+0  47554-3 0  9990
2 42758  43.0149 272.0251 0034137 254.9544 104.7525 15.15916430465711
CZ-2C R/B               
1 43521U 18054D   25321.76441702  .00090159  00000+0  74442-3 0  9994
2 43521  35.1363 349.5434 0023338 257.2024 102.6099 15.68683496411123
SAOCOM 1A               
1 43641U 18076A   25322.84063341  .00000767  00000+0  10289-3 0  9995
2 43641  97.8853 147.6098 0001386  90.6983 269.4389 14.82176413384944
H-2A R/B                
1 43682U 18084L   25322.79638852  .00018826  00000+0  52769-3 0  9992
2 43682  98.8788 151.9356 0028969  47.8056 312.5636 15.36252878388728
SAOCOM 1B               
1 46265U 20059A   25322.80442089  .00000245  00000+0  37384-4 0  9997
2 46265  97.8849 146.6760 0001348  89.9967 270.1400 14.82148488282323
CSS (TIANHE)            
1 48274U 21035A   25322.68845853  .00023288  00000+0  29082-3 0  9993
2 48274  41.4655 162.6353 0007135 190.7912 169.2774 15.59276595260270
