CCSDS_OMM_VERS = 2.0
CREATION_DATE  = 
ORIGINATOR     = 

OBJECT_NAME    = H-2A R/B
OBJECT_ID      = 2012-025E
CENTER_NAME    = EARTH
REF_FRAME      = TEME
TIME_SYSTEM    = UTC
MEAN_ELEMENT_THEORY = SGP/SGP4

EPOCH          = 2025-11-18T17:38:11.101344
MEAN_MOTION    = 14.94214243
ECCENTRICITY   = .0044547
INCLINATION    = 98.4553
RA_OF_ASC_NODE = 276.1234
ARG_OF_PERICENTER = 317.0061
MEAN_ANOMALY   = 42.7679

EPHEMERIS_TYPE = 0
CLASSIFICATION_TYPE = U
NORAD_CAT_ID   = 38341
ELEMENT_SET_NO = 999
REV_AT_EPOCH   = 73164
BSTAR          = .42928E-3
MEAN_MOTION_DOT = .4623E-4
MEAN_MOTION_DDOT = 0

CCSDS_OMM_VERS = 2.0
CREATION_DATE  = 
ORIGINATOR     = 

OBJECT_NAME    = SHIJIAN-16 (SJ-16)
OBJECT_ID      = 2013-057A
CENTER_NAME    = EARTH
REF_FRAME      = TEME
TIME_SYSTEM    = UTC
MEAN_ELEMENT_THEORY = SGP/SGP4

EPOCH          = 2025-11-18T19:07:40.160640
MEAN_MOTION    = 14.91884697
ECCENTRICITY   = .0016662
INCLINATION    = 74.9750
RA_OF_ASC_NODE = 34.9527
ARG_OF_PERICENTER = 17.3220
MEAN_ANOMALY   = 342.8533

EPHEMERIS_TYPE = 0
CLASSIFICATION_TYPE = U
NORAD_CAT_ID   = 39358
ELEMENT_SET_NO = 999
REV_AT_EPOCH   = 65496
BSTAR          = .2776E-3
MEAN_MOTION_DOT = .2785E-4
MEAN_MOTION_DDOT = 0

CCSDS_OMM_VERS = 2.0
CREATION_DATE  = 
ORIGINATOR     = 

OBJECT_NAME    = SL-4 R/B
OBJECT_ID      = 2014-021B
CENTER_NAME    = EARTH
REF_FRAME      = TEME
TIME_SYSTEM    = UTC
MEAN_ELEMENT_THEORY = SGP/SGP4

EPOCH          = 2025-11-18T13:07:09.651072
MEAN_MOTION    = 15.35830020
ECCENTRICITY   = .0103618
INCLINATION    = 51.6058
RA_OF_ASC_NODE = 158.0947
ARG_OF_PERICENTER = 59.1979
MEAN_ANOMALY   = 301.9153

EPHEMERIS_TYPE = 0
CLASSIFICATION_TYPE = U
NORAD_CAT_ID   = 39679
ELEMENT_SET_NO = 999
REV_AT_EPOCH   = 63917
BSTAR          = .36532E-3
MEAN_MOTION_DOT = .15053E-3
MEAN_MOTION_DDOT = 0

CCSDS_OMM_VERS = 2.0
CREATION_DATE  = 
ORIGINATOR     = 

OBJECT_NAME    = ALOS-2
OBJECT_ID      = 2014-029A
CENTER_NAME    = EARTH
REF_FRAME      = TEME
TIME_SYSTEM    = UTC
MEAN_ELEMENT_THEORY = SGP/SGP4

EPOCH          = 2025-11-18T20:50:50.717184
MEAN_MOTION    = 14.79466414
ECCENTRICITY   = .0001426
INCLINATION    = 97.9238
RA_OF_ASC_NODE = 58.0539
ARG_OF_PERICENTER = 99.9992
MEAN_ANOMALY   = 260.1381

EPHEMERIS_TYPE = 0
CLASSIFICATION_TYPE = U
NORAD_CAT_ID   = 39766
ELEMENT_SET_NO = 999
REV_AT_EPOCH   = 62048
BSTAR          = .35791E-3
MEAN_MOTION_DOT = .2622E-4
MEAN_MOTION_DDOT = 0

CCSDS_OMM_VERS = 2.0
CREATION_DATE  = 
ORIGINATOR     = 

OBJECT_NAME    = YAOGAN-29
OBJECT_ID      = 2015-069A
CENTER_NAME    = EARTH
REF_FRAME      = TEME
TIME_SYSTEM    = UTC
MEAN_ELEMENT_THEORY = SGP/SGP4

EPOCH          = 2025-11-18T20:45:24.189984
MEAN_MOTION    = 14.82845596
ECCENTRICITY   = .0001801
INCLINATION    = 98.0243
RA_OF_ASC_NODE = 345.9573
ARG_OF_PERICENTER = 37.1023
MEAN_ANOMALY   = 323.0314

EPHEMERIS_TYPE = 0
CLASSIFICATION_TYPE = U
NORAD_CAT_ID   = 41038
ELEMENT_SET_NO = 999
REV_AT_EPOCH   = 53945
BSTAR          = .99089E-4
MEAN_MOTION_DOT = .748E-5
MEAN_MOTION_DDOT = 0

CCSDS_OMM_VERS = 2.0
CREATION_DATE  = 
ORIGINATOR     = 

OBJECT_NAME    = ASTRO-H (HITOMI)
OBJECT_ID      = 2016-012A
CENTER_NAME    = EARTH
REF_FRAME      = TEME
TIME_SYSTEM    = UTC
MEAN_ELEMENT_THEORY = SGP/SGP4

EPOCH          = 2025-11-17T19:44:57.308928
MEAN_MOTION    = 15.09138755
ECCENTRICITY   = .00098595
INCLINATION    = 31.0014
RA_OF_ASC_NODE = 357.9743
ARG_OF_PERICENTER = 286.5211
MEAN_ANOMALY   = 73.4344

EPHEMERIS_TYPE = 0
CLASSIFICATION_TYPE = U
NORAD_CAT_ID   = 41337
ELEMENT_SET_NO = 999
REV_AT_EPOCH   = 53531
BSTAR          = .27250042E-3
MEAN_MOTION_DOT = .4529E-4
MEAN_MOTION_DDOT = 0

CCSDS_OMM_VERS = 2.0
CREATION_DATE  = 
ORIGINATOR     = 

OBJECT_NAME    = HXMT (HUIYAN)
OBJECT_ID      = 2017-034A
CENTER_NAME    = EARTH
REF_FRAME      = TEME
TIME_SYSTEM    = UTC
MEAN_ELEMENT_THEORY = SGP/SGP4

EPOCH          = 2025-11-18T21:00:29.141856
MEAN_MOTION    = 15.15916430
ECCENTRICITY   = .0034137
INCLINATION    = 43.0149
RA_OF_ASC_NODE = 272.0251
ARG_OF_PERICENTER = 254.9544
MEAN_ANOMALY   = 104.7525

EPHEMERIS_TYPE = 0
CLASSIFICATION_TYPE = U
NORAD_CAT_ID   = 42758
ELEMENT_SET_NO = 999
REV_AT_EPOCH   = 46571
BSTAR          = .47554E-3
MEAN_MOTION_DOT = .9186E-4
MEAN_MOTION_DDOT = 0

CCSDS_OMM_VERS = 2.0
CREATION_DATE  = 
ORIGINATOR     = 

OBJECT_NAME    = CZ-2C R/B
OBJECT_ID      = 2018-054D
CENTER_NAME    = EARTH
REF_FRAME      = TEME
TIME_SYSTEM    = UTC
MEAN_ELEMENT_THEORY = SGP/SGP4

EPOCH          = 2025-11-17T18:20:45.630528
MEAN_MOTION    = 15.68683496
ECCENTRICITY   = .00233387
INCLINATION    = 35.1363
RA_OF_ASC_NODE = 349.5434
ARG_OF_PERICENTER = 257.2024
MEAN_ANOMALY   = 102.6099

EPHEMERIS_TYPE = 0
CLASSIFICATION_TYPE = U
NORAD_CAT_ID   = 43521
ELEMENT_SET_NO = 999
REV_AT_EPOCH   = 41112
BSTAR          = .74442438E-3
MEAN_MOTION_DOT = .90159E-3
MEAN_MOTION_DDOT = 0

CCSDS_OMM_VERS = 2.0
CREATION_DATE  = 
ORIGINATOR     = 

OBJECT_NAME    = SAOCOM 1A
OBJECT_ID      = 2018-076A
CENTER_NAME    = EARTH
REF_FRAME      = TEME
TIME_SYSTEM    = UTC
MEAN_ELEMENT_THEORY = SGP/SGP4

EPOCH          = 2025-11-18T20:10:30.726624
MEAN_MOTION    = 14.82176413
ECCENTRICITY   = .0001386
INCLINATION    = 97.8853
RA_OF_ASC_NODE = 147.6098
ARG_OF_PERICENTER = 90.6983
MEAN_ANOMALY   = 269.4389

EPHEMERIS_TYPE = 0
CLASSIFICATION_TYPE = U
NORAD_CAT_ID   = 43641
ELEMENT_SET_NO = 999
REV_AT_EPOCH   = 38494
BSTAR          = .10289E-3
MEAN_MOTION_DOT = .767E-5
MEAN_MOTION_DDOT = 0

CCSDS_OMM_VERS = 2.0
CREATION_DATE  = 
ORIGINATOR     = 

OBJECT_NAME    = H-2A R/B
OBJECT_ID      = 2018-084L
CENTER_NAME    = EARTH
REF_FRAME      = TEME
TIME_SYSTEM    = UTC
MEAN_ELEMENT_THEORY = SGP/SGP4

EPOCH          = 2025-11-18T19:06:47.968128
MEAN_MOTION    = 15.36252878
ECCENTRICITY   = .0028969
INCLINATION    = 98.8788
RA_OF_ASC_NODE = 151.9356
ARG_OF_PERICENTER = 47.8056
MEAN_ANOMALY   = 312.5636

EPHEMERIS_TYPE = 0
CLASSIFICATION_TYPE = U
NORAD_CAT_ID   = 43682
ELEMENT_SET_NO = 999
REV_AT_EPOCH   = 38872
BSTAR          = .52769E-3
MEAN_MOTION_DOT = .18826E-3
MEAN_MOTION_DDOT = 0

CCSDS_OMM_VERS = 2.0
CREATION_DATE  = 
ORIGINATOR     = 

OBJECT_NAME    = SAOCOM 1B
OBJECT_ID      = 2020-059A
CENTER_NAME    = EARTH
REF_FRAME      = TEME
TIME_SYSTEM    = UTC
MEAN_ELEMENT_THEORY = SGP/SGP4

EPOCH          = 2025-11-18T19:18:21.964896
MEAN_MOTION    = 14.82148488
ECCENTRICITY   = .0001348
INCLINATION    = 97.8849
RA_OF_ASC_NODE = 146.6760
ARG_OF_PERICENTER = 89.9967
MEAN_ANOMALY   = 270.1400

EPHEMERIS_TYPE = 0
CLASSIFICATION_TYPE = U
NORAD_CAT_ID   = 46265
ELEMENT_SET_NO = 999
REV_AT_EPOCH   = 28232
BSTAR          = .37384E-4
MEAN_MOTION_DOT = .245E-5
MEAN_MOTION_DDOT = 0

CCSDS_OMM_VERS = 2.0
CREATION_DATE  = 
ORIGINATOR     = 

OBJECT_NAME    = CSS (TIANHE)
OBJECT_ID      = 2021-035A
CENTER_NAME    = EARTH
REF_FRAME      = TEME
TIME_SYSTEM    = UTC
MEAN_ELEMENT_THEORY = SGP/SGP4

EPOCH          = 2025-11-18T16:31:22.816992
MEAN_MOTION    = 15.59276595
ECCENTRICITY   = .0007135
INCLINATION    = 41.4655
RA_OF_ASC_NODE = 162.6353
ARG_OF_PERICENTER = 190.7912
MEAN_ANOMALY   = 169.2774

EPHEMERIS_TYPE = 0
CLASSIFICATION_TYPE = U
NORAD_CAT_ID   = 48274
ELEMENT_SET_NO = 999
REV_AT_EPOCH   = 26027
BSTAR          = .29082E-3
MEAN_MOTION_DOT = .23288E-3
MEAN_MOTION_DDOT = 0

